OBJECT_NAME,OBJECT_ID,EPOCH,MEAN_MOTION,ECCENTRICITY,INCLINATION,RA_OF_ASC_NODE,ARG_OF_PERICENTER,MEAN_ANOMALY,EPHEMERIS_TYPE,CLASSIFICATION_TYPE,NORAD_CAT_ID,ELEMENT_SET_NO,REV_AT_EPOCH,BSTAR,MEAN_MOTION_DOT,MEAN_MOTION_DDOT
STARLINK-31320,2024-020L,2025-10-01T11:12:05.383872,15.30178949,0.0001267,53.1597,341.9742,105.6719,254.4421,0,U,58886,999,9369,0.00017427,4.802e-05,0.0
STARLINK-31321,2024-020M,2025-09-30T10:11:45.953088,15.3016936,0.00014588,53.1593,346.8448,89.2526,270.8641,0,U,58887,999,9469,-0.0002392712,-7.432e-05,0.0
STARLINK-31007,2024-020P,2025-10-01T11:21:10.464192,15.30189828,0.0001225,53.1594,342.0135,99.5987,260.5152,0,U,58889,999,9369,-0.00011607,-3.794e-05,0.0
STARLINK-31230,2024-020Q,2025-10-02T04:22:52.166208,15.30177596,0.0001675,53.1601,336.5168,53.509,306.6065,0,U,58890,999,9383,0.00019681,5.47e-05,0.0
STARLINK-31245,2024-020R,2025-10-02T02:31:06.174048,15.30166614,0.0001966,53.1594,297.8868,100.8267,259.2955,0,U,58891,999,9552,-7.2491e-05,-2.504e-05,0.0
STARLINK-31254,2024-020S,2025-10-01T11:18:23.234400,15.32638716,0.0002917,53.1601,342.0188,34.7285,325.3906,0,U,58892,999,9369,0.0026462762,0.00085173,0.0
STARLINK-31255,2024-020T,2025-10-01T11:25:43.677408,15.30205612,0.00013335,53.1597,342.0341,108.7724,251.3422,0,U,58893,999,9369,0.00016842717,4.633e-05,0.0
STARLINK-31243,2024-020U,2025-10-01T13:04:23.934144,15.30147893,0.00012754,53.161,341.7495,106.7276,253.3865,0,U,58894,999,9370,-0.00010647557,-3.506e-05,0.0
STARLINK-31218,2024-020V,2025-10-01T11:34:51.974400,15.3017804,0.0001033,53.1614,342.0712,87.9606,272.1513,0,U,58895,999,9369,4.555e-05,9.89e-06,0.0
STARLINK-31221,2024-020W,2025-10-01T15:26:04.995168,15.97713368,0.0017881,53.1263,313.9075,17.3779,127.7402,0,U,58896,999,9511,0.0015053,0.00702824,0.00022778
STARLINK-31190,2024-020X,2025-10-01T21:09:49.459680,15.30186341,0.000214,53.1588,340.2978,84.6552,275.4693,0,U,58897,999,9375,0.00028127,7.976e-05,0.0
LEMUR-2-NIMBUS2000,2024-022A,2025-10-02T01:41:57.945984,15.30305595,0.0010368,97.4377,118.132,328.3314,31.7302,0,U,58899,999,9266,0.00099999,0.00029364,0.0
LEMUR-2-VALHALLA,2024-022B,2025-10-02T02:19:50.441376,15.30270297,0.001052,97.4376,118.2402,325.2096,34.8455,0,U,58900,999,9267,0.0010242,0.00030047,0.0
LEMUR-2-OBA-NI-JESU,2024-022D,2025-10-02T02:28:36.942240,15.43533996,0.0005347,97.4308,122.7914,293.848,66.2207,0,U,58902,999,9298,0.0015231,0.00068795,0.0
LEMUR-2-CAEL,2024-022E,2025-10-02T02:17:55.946688,15.31138111,0.0008283,97.4366,118.7889,307.1873,52.8611,0,U,58903,999,9271,0.00097751,0.00029435,0.0
GEESAT-2 01,2024-023A,2025-10-02T02:55:41.510208,14.89690893,0.000829,49.9927,110.9335,174.0798,186.0242,0,U,58905,999,9058,0.00077164,7.238e-05,0.0
GEESAT-2 02,2024-023B,2025-10-02T04:11:17.169792,14.89657809,0.0010689,49.9966,110.7533,198.3048,161.7509,0,U,58906,999,9059,0.00076476,7.168e-05,0.0
GEESAT-2 03,2024-023C,2025-10-02T03:19:55.189344,14.95379037,0.0006374,49.9989,104.0386,107.51,252.6541,0,U,58907,999,9068,0.00047833,5.095e-05,0.0
GEESAT-2 04,2024-023D,2025-10-02T03:02:34.204128,14.95445166,0.0006574,49.9905,103.4665,110.4245,249.7405,0,U,58908,999,9068,0.000485,5.179e-05,0.0
GEESAT-2 05,2024-023E,2025-10-02T03:17:25.772640,14.89681483,0.0008641,50.0027,110.8731,198.4457,161.6172,0,U,58909,999,9059,0.00078265,7.344e-05,0.0
GEESAT-2 06,2024-023F,2025-10-02T05:04:51.724128,15.00536376,0.0006547,49.9872,91.3154,118.8864,241.2739,0,U,58910,999,9085,0.0017597,0.00022278,0.0
GEESAT-2 07,2024-023G,2025-10-02T02:23:42.460800,14.89685808,0.0009866,50.0033,111.4283,136.803,223.3686,0,U,58911,999,9058,0.00081569,7.666e-05,0.0
GEESAT-2 08,2024-023H,2025-10-01T19:35:35.021184,14.89692539,0.00139692,49.9873,111.6356,162.1172,198.0263,0,U,58912,999,9054,0.0006149406,5.724e-05,0.0
GEESAT-2 09,2024-023J,2025-10-02T01:30:13.307328,14.89678732,0.0016588,50.0015,111.0872,169.012,191.1186,0,U,58913,999,9058,0.0008034,7.556e-05,0.0
GEESAT-2 10,2024-023K,2025-10-02T02:45:01.232640,14.89672725,0.0008004,49.9925,110.8794,164.7342,195.3842,0,U,58914,999,9058,0.00076352,7.156e-05,0.0
GEESAT-2 11,2024-023L,2025-10-02T00:14:48.899616,14.89697221,0.0008872,49.9971,111.2382,184.0749,176.012,0,U,58915,999,9057,0.00091531,8.634e-05,0.0
2024-024B,2024-024B,2025-10-02T04:49:16.336992,15.18692508,0.0011634,97.3407,343.8897,309.7336,50.2873,0,U,58918,999,9214,0.0016292,0.0003391,0.0
2024-024C,2024-024C,2025-10-02T04:35:28.572288,15.42304762,0.0001435,97.3418,353.0831,83.9279,276.2132,0,U,58919,999,9275,0.0018128,0.00078667,0.0
NEXSAT-1,2024-024E,2025-10-02T05:18:55.006272,15.29046113,0.0007931,97.3361,347.5253,323.1833,36.8862,0,U,58921,999,9241,0.00091876,0.0002592,0.0
2024-024F,2024-024F,2025-10-02T04:21:44.019936,15.16251809,0.0013278,97.3368,342.65,218.4445,141.5843,0,U,58922,999,9208,0.0010513,0.00020355,0.0
