58886,STARLINK-31320,2024,94.11,-1.0,+,53.16,Active,0,LEO,USA,USA,Unknown,Unknown,Unknown,1 58886U 24020L   25274.46672898  .00004802  00000+0  17427-3 0  9990,2 58886  53.1597 341.9742 0001267 105.6719 254.4421 15.30178949 93698,15.30178949,0.0001267,LEO
58887,STARLINK-31321,2024,94.11,-1.0,+,53.16,Active,0,LEO,USA,USA,Unknown,Unknown,Unknown,1 58887U 24020M   25273.42483742 -.00007432  00000+0 -23927-3 0  9990,2 58887  53.1593 346.8448 0001458  89.2526 270.8641 15.30169360 94691,15.3016936,0.0001458,LEO
58889,STARLINK-31007,2024,94.11,-1.0,+,53.16,Active,0,LEO,USA,USA,Unknown,Unknown,Unknown,1 58889U 24020P   25274.47303778 -.00003794  00000+0 -11607-3 0  9997,2 58889  53.1594 342.0135 0001225  99.5987 260.5152 15.30189828 93695,15.30189828,0.0001225,LEO
58890,STARLINK-31230,2024,94.11,-1.0,+,53.16,Active,0,LEO,USA,USA,Unknown,Unknown,Unknown,1 58890U 24020Q   25275.18254822  .00005470  00000+0  19681-3 0  9994,2 58890  53.1601 336.5168 0001675  53.5090 306.6065 15.30177596 93834,15.30177596,0.0001675,LEO
58891,STARLINK-31245,2024,94.1,-1.0,+,53.16,Active,0,LEO,USA,USA,Unknown,Unknown,Unknown,1 58891U 24020R   25275.10493257 -.00002504  00000+0 -72491-4 0  9990,2 58891  53.1594 297.8868 0001966 100.8267 259.2955 15.30166614 95525,15.30166614,0.0001966,LEO
58892,STARLINK-31254,2024,93.96,-1.0,+,53.16,Active,0,LEO,USA,USA,Unknown,Unknown,Unknown,1 58892U 24020S   25274.47110225  .00085173  00000+0  26463-2 0  9998,2 58892  53.1601 342.0188 0002917  34.7285 325.3906 15.32638716 93691,15.32638716,0.0002917,LEO
58893,STARLINK-31255,2024,94.11,-1.0,+,53.16,Active,0,LEO,USA,USA,Unknown,Unknown,Unknown,1 58893U 24020T   25274.47619997  .00004633  00000+0  16843-3 0  9993,2 58893  53.1597 342.0341 0001333 108.7724 251.3422 15.30205612 93692,15.30205612,0.0001333,LEO
58894,STARLINK-31243,2024,94.11,-1.0,+,53.16,Active,0,LEO,USA,USA,Unknown,Unknown,Unknown,1 58894U 24020U   25274.54472146 -.00003506  00000+0 -10648-3 0  9992,2 58894  53.1610 341.7495 0001275 106.7276 253.3865 15.30147893 93701,15.30147893,0.0001275,LEO
58895,STARLINK-31218,2024,94.11,-1.0,+,53.16,Active,0,LEO,USA,USA,Unknown,Unknown,Unknown,1 58895U 24020V   25274.48254600  .00000989  00000+0  45550-4 0  9990,2 58895  53.1614 342.0712 0001033  87.9606 272.1513 15.30178040 93696,15.3017804,0.0001033,LEO
58896,STARLINK-31221,2024,90.13,-1.0,P,53.13,Active,0,LEO,USA,USA,Unknown,Unknown,Unknown,1 58896U 24020W   25274.64311337  .00702824  22778-3  15053-2 0  9990,2 58896  53.1263 313.9075 0017881  17.3779 127.7402 15.97713368 95114,15.97713368,0.0017881,LEO
58897,STARLINK-31190,2024,94.11,-1.0,+,53.16,Active,0,LEO,USA,USA,Unknown,Unknown,Unknown,1 58897U 24020X   25274.88182245  .00007976  00000+0  28127-3 0  9994,2 58897  53.1588 340.2978 0002140  84.6552 275.4693 15.30186341 93751,15.30186341,0.000214,LEO
58899,LEMUR-2-NIMBUS2000,2024,94.1,-1.0,+,97.44,Active,0,LEO,New Zealand,USA,Unknown,Unknown,Unknown,1 58899U 24022A   25275.07080956  .00029364  00000+0  99999-3 0  9996,2 58899  97.4377 118.1320 0010368 328.3314  31.7302 15.30305595 92661,15.30305595,0.0010368,LEO
58900,LEMUR-2-VALHALLA,2024,94.1,-1.0,+,97.44,Active,0,LEO,New Zealand,USA,Unknown,Unknown,Unknown,1 58900U 24022B   25275.09711159  .00030047  00000+0  10242-2 0  9990,2 58900  97.4376 118.2402 0010520 325.2096  34.8455 15.30270297 92672,15.30270297,0.001052,LEO
58902,LEMUR-2-OBA-NI-JESU,2024,93.3,-1.0,+,97.43,Active,0,LEO,New Zealand,USA,Unknown,Unknown,Unknown,1 58902U 24022D   25275.10320535  .00068795  00000+0  15231-2 0  9992,2 58902  97.4308 122.7914 0005347 293.8480  66.2207 15.43533996 92985,15.43533996,0.0005347,LEO
58903,LEMUR-2-CAEL,2024,94.05,-1.0,+,97.44,Active,0,LEO,New Zealand,USA,Unknown,Unknown,Unknown,1 58903U 24022E   25275.09578642  .00029435  00000+0  97751-3 0  9991,2 58903  97.4366 118.7889 0008283 307.1873  52.8611 15.31138111 92711,15.31138111,0.0008283,LEO
58905,GEESAT-2 01,2024,96.66,-1.0,+,49.99,Active,0,LEO,PRC,China,Unknown,Unknown,Unknown,1 58905U 24023A   25275.12200822  .00007238  00000+0  77164-3 0  9993,2 58905  49.9927 110.9335 0008290 174.0798 186.0242 14.89690893 90588,14.89690893,0.000829,LEO
58906,GEESAT-2 02,2024,96.67,-1.0,+,50.0,Active,0,LEO,PRC,China,Unknown,Unknown,Unknown,1 58906U 24023B   25275.17450428  .00007168  00000+0  76476-3 0  9995,2 58906  49.9966 110.7533 0010689 198.3048 161.7509 14.89657809 90599,14.89657809,0.0010689,LEO
58907,GEESAT-2 03,2024,96.3,-1.0,+,50.0,Active,0,LEO,PRC,China,Unknown,Unknown,Unknown,1 58907U 24023C   25275.13883321  .00005095  00000+0  47833-3 0  9996,2 58907  49.9989 104.0386 0006374 107.5100 252.6541 14.95379037 90681,14.95379037,0.0006374,LEO
58908,GEESAT-2 04,2024,96.29,-1.0,+,49.99,Active,0,LEO,PRC,China,Unknown,Unknown,Unknown,1 58908U 24023D   25275.12678477  .00005179  00000+0  48500-3 0  9995,2 58908  49.9905 103.4665 0006574 110.4245 249.7405 14.95445166 90681,14.95445166,0.0006574,LEO
58909,GEESAT-2 05,2024,96.67,-1.0,+,50.0,Active,0,LEO,PRC,China,Unknown,Unknown,Unknown,1 58909U 24023E   25275.13710385  .00007344  00000+0  78265-3 0  9999,2 58909  50.0027 110.8731 0008641 198.4457 161.6172 14.89681483 90594,14.89681483,0.0008641,LEO
58910,GEESAT-2 06,2024,95.97,-1.0,+,49.99,Active,0,LEO,PRC,China,Unknown,Unknown,Unknown,1 58910U 24023F   25275.21170977  .00022278  00000+0  17597-2 0  9990,2 58910  49.9872  91.3154 0006547 118.8864 241.2739 15.00536376 90851,15.00536376,0.0006547,LEO
58911,GEESAT-2 07,2024,96.67,-1.0,+,50.0,Active,0,LEO,PRC,China,Unknown,Unknown,Unknown,1 58911U 24023G   25275.09979700  .00007666  00000+0  81569-3 0  9993,2 58911  50.0033 111.4283 0009866 136.8030 223.3686 14.89685808 90586,14.89685808,0.0009866,LEO
58912,GEESAT-2 08,2024,96.66,-1.0,+,49.99,Active,0,LEO,PRC,China,Unknown,Unknown,Unknown,1 58912U 24023H   25274.81637756  .00005724  00000+0  61494-3 0  9993,2 58912  49.9873 111.6356 0013969 162.1172 198.0263 14.89692539 90541,14.89692539,0.0013969,LEO
58913,GEESAT-2 09,2024,96.67,-1.0,+,50.0,Active,0,LEO,PRC,China,Unknown,Unknown,Unknown,1 58913U 24023J   25275.06265402  .00007556  00000+0  80340-3 0  9993,2 58913  50.0015 111.0872 0016588 169.0120 191.1186 14.89678732 90580,14.89678732,0.0016588,LEO
58914,GEESAT-2 10,2024,96.67,-1.0,+,49.99,Active,0,LEO,PRC,China,Unknown,Unknown,Unknown,1 58914U 24023K   25275.11459760  .00007156  00000+0  76352-3 0  9996,2 58914  49.9925 110.8794 0008004 164.7342 195.3842 14.89672725 90581,14.89672725,0.0008004,LEO
58915,GEESAT-2 11,2024,96.66,-1.0,+,50.0,Active,0,LEO,PRC,China,Unknown,Unknown,Unknown,1 58915U 24023L   25275.01028819  .00008634  00000+0  91531-3 0  9991,2 58915  49.9971 111.2382 0008872 184.0749 176.0120 14.89697221 90572,14.89697221,0.0008872,LEO
58918,OBJECT B,2024,94.82,-1.0,+,97.34,Active,0,LEO,PRC,China,Unknown,Unknown,Unknown,1 58918U 24024B   25275.20088353  .00033910  00000+0  16292-2 0  9990,2 58918  97.3407 343.8897 0011634 309.7336  50.2873 15.18692508 92147,15.18692508,0.0011634,LEO
58919,OBJECT C,2024,93.37,-1.0,+,97.34,Active,0,LEO,PRC,China,Unknown,Unknown,Unknown,1 58919U 24024C   25275.19130292  .00078667  00000+0  18128-2 0  9997,2 58919  97.3418 353.0831 0001435  83.9279 276.2132 15.42304762 92750,15.42304762,0.0001435,LEO
58921,NEXSAT-1,2024,94.18,-1.0,+,97.34,Active,0,LEO,PRC,Egypt,Unknown,Unknown,Unknown,1 58921U 24024E   25275.22146998  .00025920  00000+0  91876-3 0  9990,2 58921  97.3361 347.5253 0007931 323.1833  36.8862 15.29046113 92419,15.29046113,0.0007931,LEO
58922,OBJECT F,2024,94.97,-1.0,+,97.34,Active,0,LEO,PRC,China,Unknown,Unknown,Unknown,1 58922U 24024F   25275.18175949  .00020355  00000+0  10513-2 0  9999,2 58922  97.3368 342.6500 0013278 218.4445 141.5843 15.16251809 92086,15.16251809,0.0013278,LEO
